Vaasa,e,9.23596,292.52015,49.93991,2.3328197,0.27661919,0.2444653,140.70346,11/5/1990,1950.0,13.50,0.25
Vaino,e,0.98719,304.43955,38.75113,2.4463200,0.25759308,0.2321978,153.02842,11/5/1990,1950.0,13.20,0.25
Vainu Bappu,e,10.24709,138.74827,245.95494,3.0334679,0.18654988,0.0655428,306.12503,11/5/1990,1950.0,12.90,0.25
Vaisala,e,24.57111,201.88744,173.49880,2.3707428,0.27000848,0.2322301,98.86979,11/5/1990,1950.0,12.60,0.25
Vala,e,4.95341,65.23328,158.30962,2.4317082,0.25991832,0.0667737,8.89523,11/5/1990,1950.0,9.99,0.25
Valborg,e,12.57846,337.78110,338.33165,2.6134636,0.23328101,0.1533504,232.40525,11/5/1990,1950.0,10.77,0.25
Valda,e,7.72576,38.21743,23.71852,2.5517954,0.24178832,0.2145278,157.92922,11/5/1990,1950.0,11.72,0.25
Valdaj,e,22.12261,356.24034,182.40874,3.1648715,0.17505316,0.0432786,294.84486,11/5/1990,1950.0,11.00,0.25
Valdivia,e,10.27036,150.91608,90.54091,2.6055268,0.23434773,0.1866276,8.40498,11/5/1990,1950.0,11.60,0.25
Valentine,e,4.80359,71.62835,313.04915,2.9858903,0.19102636,0.0440150,232.99316,11/5/1990,1950.0,9.25,0.15
Valeria,e,13.44746,189.31272,254.31992,2.9763032,0.19195009,0.1250971,72.94562,11/5/1990,1950.0,9.36,0.25
Valeska,e,12.73284,20.05226,0.21838,3.0749686,0.18278605,0.2651154,184.09793,11/5/1990,1950.0,12.10,0.25
Vampilov,e,15.61583,75.71930,238.81291,3.1336357,0.17767705,0.3244103,82.88687,11/5/1990,1950.0,11.80,0.25
Van Biesbroeck,e,6.93654,44.23527,341.86915,2.3948629,0.26593965,0.1074946,245.48903,11/5/1990,1950.0,12.70,0.25
Van De Kamp,e,2.22540,87.84369,342.47672,2.5685550,0.23942570,0.1089731,61.18198,11/5/1990,1950.0,12.30,0.25
Van Den Bos,e,5.36503,82.85193,274.36018,2.2394903,0.29409002,0.1792732,32.24740,11/5/1990,1950.0,13.70,0.25
SHAR_EOF
true || echo 'restore of ephem.db failed'
fi
echo 'End of  part 19'
echo 'File ephem.db is continued in part 20'
echo 20 > _shar_seq_.tmp
exit 0
-- 
--
Molecular Simulations, Inc.			mail: dcmartin@msi.com
796 N. Pastoria Avenue				uucp: uunet!dcmartin
Sunnyvale, California 94086			at&t: 408/522-9236
